[
  {
    "task": "create",
    "line1": "Massachusetts Hall",
    "city": "Cambridge",
    "state": "MA",
    "zip": "02138"
  },
  {
    "task": "create",
    "line1": "3400 N. Charles St.",
    "city": "Baltimore",
    "state": "MD",
    "zip": "21218"
  },
  {
    "task": "create",
    "line1": "Roosevelt Way NE",
    "city": "Seattle",
    "state": "WA",
    "zip": "98115"
  },
  {
    "task": "create",
    "line1": "1600 Holloway Ave",
    "city": "San Francisco",
    "state": "CA",
    "zip": "94132"
  },
  {
    "task": "create",
    "line1": "1600 Holloway Ave",
    "line2": "Suite 10",
    "city": "San Francisco",
    "state": "CA",
    "zip": "94132"
  },
  {
    "task": "create",
    "line1": "1600 Holloway Ave",
    "line2": "Suite 20",
    "city": "San Francisco",
    "state": "CA",
    "zip": "94132"
  },
  {
    "task": "create",
    "line1": "500 S State St",
    "city": "Ann Arbor",
    "state": "MI",
    "zip": "48109"
  },
  {
    "task": "create",
    "line1": "185 Berry St",
    "line2": "Suite 6100",
    "city": "San Francisco",
    "state": "CA",
    "zip": "94107"
  },
  {
    "task": "search",
    "query": "1600 Charles",
    "exactMatch": "true",
    "requireAll": "true"
  },
  {
    "task": "search",
    "query": "1600 Charles",
    "exactMatch": "true"
  },
  {
    "task": "get",
    "addressId": "ref 4"
  },
  {
    "task": "delete",
    "addressId": "ref 4"
  },
  {
    "task": "get",
    "addressId": "ref 4"
  },
  {
    "task": "delete",
    "addressId": "ref 4"
  },
  {
    "task": "create",
    "line1": "Massachusetts Hall",
    "city": "Cambridge",
    "state": "MA",
    "zip": "02138"
  },
  {
    "task": "search",
    "query": "160 Charles Mass"
  },
  {
    "task": "delete",
    "addressId": "ref 2"
  },
  {
    "task": "search",
    "query": "160 Charles Mass"
  },
  {
    "task": "create",
    "line2": "Massachusetts Hall",
    "city": "Cambridge",
    "state": "MA",
    "zip": "02138"
  },
  {
    "task": "get",
    "addressId": "ref 1"
  },
  {
    "task": "update",
    "addressId": "ref 1",
    "line1": "Charles Hall"
  },
  {
    "task": "get",
    "addressId": "ref 1"
  },
  {
    "task": "delete",
    "addressId": "ref 1"
  },
  {
    "task": "update",
    "addressId": "ref 1",
    "city": "Charles Hall"
  },
  {
    "task": "get",
    "addressId": "ref 1"
  },
  {
    "task": "delete",
    "addressId": "ref 1"
  },
  {
    "task": "stats"
  }
]
